[
  {
    "OBJECT_NAME": "STRATOSAT-TK 1 (RS52S)",
    "OBJECT_ID": "2023-091B",
    "EPOCH": "2025-06-07T21:21:22.140576",
    "MEAN_MOTION": 15.40103058,
    "ECCENTRICITY": 0.000649,
    "INCLINATION": 97.5535,
    "RA_OF_ASC_NODE": 222.3249,
    "ARG_OF_PERICENTER": 316.3244,
    "MEAN_ANOMALY": 43.7487,
    "EPHEMERIS_TYPE": 0,
    "CLASSIFICATION_TYPE": "U",
    "NORAD_CAT_ID": 57167,
    "ELEMENT_SET_NO": 999,
    "REV_AT_EPOCH": 10775,
    "BSTAR": 0.00078968,
    "MEAN_MOTION_DOT": 0.00031638,
    "MEAN_MOTION_DDOT": 0
  },
  {
    "OBJECT_NAME": "UMKA 1 (RS40S)",
    "OBJECT_ID": "2023-091G",
    "EPOCH": "2025-06-07T21:21:33.586848",
    "MEAN_MOTION": 15.15343309,
    "ECCENTRICITY": 0.0013703,
    "INCLINATION": 97.5585,
    "RA_OF_ASC_NODE": 214.2805,
    "ARG_OF_PERICENTER": 346.7768,
    "MEAN_ANOMALY": 13.3103,
    "EPHEMERIS_TYPE": 0,
    "CLASSIFICATION_TYPE": "U",
    "NORAD_CAT_ID": 57172,
    "ELEMENT_SET_NO": 999,
    "REV_AT_EPOCH": 10722,
    "BSTAR": 0.00024889,
    "MEAN_MOTION_DOT": 4.635e-05,
    "MEAN_MOTION_DDOT": 0
  },
  {
    "OBJECT_NAME": "CUBESX-HSE 3 (RS42S)",
    "OBJECT_ID": "2023-091N",
    "EPOCH": "2025-06-07T21:03:03.552480",
    "MEAN_MOTION": 15.20717175,
    "ECCENTRICITY": 0.0012415,
    "INCLINATION": 97.5616,
    "RA_OF_ASC_NODE": 216.6129,
    "ARG_OF_PERICENTER": 334.763,
    "MEAN_ANOMALY": 25.2997,
    "EPHEMERIS_TYPE": 0,
    "CLASSIFICATION_TYPE": "U",
    "NORAD_CAT_ID": 57178,
    "ELEMENT_SET_NO": 999,
    "REV_AT_EPOCH": 10735,
    "BSTAR": 0.00034775,
    "MEAN_MOTION_DOT": 7.594e-05,
    "MEAN_MOTION_DDOT": 0
  },
  {
    "OBJECT_NAME": "MONITOR-3 (RS58S)",
    "OBJECT_ID": "2023-091Q",
    "EPOCH": "2025-06-07T20:04:31.806336",
    "MEAN_MOTION": 15.19066089,
    "ECCENTRICITY": 0.0013141,
    "INCLINATION": 97.5609,
    "RA_OF_ASC_NODE": 215.843,
    "ARG_OF_PERICENTER": 337.2049,
    "MEAN_ANOMALY": 22.8601,
    "EPHEMERIS_TYPE": 0,
    "CLASSIFICATION_TYPE": "U",
    "NORAD_CAT_ID": 57180,
    "ELEMENT_SET_NO": 999,
    "REV_AT_EPOCH": 10730,
    "BSTAR": 0.00034322,
    "MEAN_MOTION_DOT": 7.143e-05,
    "MEAN_MOTION_DDOT": 0
  },
  {
    "OBJECT_NAME": "MONITOR-4 (RS57S)",
    "OBJECT_ID": "2023-091S",
    "EPOCH": "2025-06-07T19:59:26.674368",
    "MEAN_MOTION": 15.19112988,
    "ECCENTRICITY": 0.0013187,
    "INCLINATION": 97.5605,
    "RA_OF_ASC_NODE": 215.7976,
    "ARG_OF_PERICENTER": 337.8706,
    "MEAN_ANOMALY": 22.1957,
    "EPHEMERIS_TYPE": 0,
    "CLASSIFICATION_TYPE": "U",
    "NORAD_CAT_ID": 57182,
    "ELEMENT_SET_NO": 999,
    "REV_AT_EPOCH": 10730,
    "BSTAR": 0.00034119,
    "MEAN_MOTION_DOT": 7.11e-05,
    "MEAN_MOTION_DDOT": 0
  },
  {
    "OBJECT_NAME": "MONITOR-2 (RS39S)",
    "OBJECT_ID": "2023-091U",
    "EPOCH": "2025-06-07T19:46:10.951104",
    "MEAN_MOTION": 15.1437108,
    "ECCENTRICITY": 0.0011493,
    "INCLINATION": 97.5612,
    "RA_OF_ASC_NODE": 214.4902,
    "ARG_OF_PERICENTER": 338.0475,
    "MEAN_ANOMALY": 22.0263,
    "EPHEMERIS_TYPE": 0,
    "CLASSIFICATION_TYPE": "U",
    "NORAD_CAT_ID": 57184,
    "ELEMENT_SET_NO": 999,
    "REV_AT_EPOCH": 10721,
    "BSTAR": 0.0002149,
    "MEAN_MOTION_DOT": 3.881e-05,
    "MEAN_MOTION_DDOT": 0
  },
  {
    "OBJECT_NAME": "SVYATOBOR 1 (RS60S)",
    "OBJECT_ID": "2023-091X",
    "EPOCH": "2025-06-07T20:53:35.766240",
    "MEAN_MOTION": 15.18922263,
    "ECCENTRICITY": 0.0009948,
    "INCLINATION": 97.5614,
    "RA_OF_ASC_NODE": 216.5839,
    "ARG_OF_PERICENTER": 329.4794,
    "MEAN_ANOMALY": 30.586,
    "EPHEMERIS_TYPE": 0,
    "CLASSIFICATION_TYPE": "U",
    "NORAD_CAT_ID": 57187,
    "ELEMENT_SET_NO": 999,
    "REV_AT_EPOCH": 10735,
    "BSTAR": 0.00027493,
    "MEAN_MOTION_DOT": 5.677e-05,
    "MEAN_MOTION_DDOT": 0
  },
  {
    "OBJECT_NAME": "VIZARD-METEO (RS38S)",
    "OBJECT_ID": "2023-091Z",
    "EPOCH": "2025-06-07T19:46:09.924672",
    "MEAN_MOTION": 15.23478039,
    "ECCENTRICITY": 0.0008134,
    "INCLINATION": 97.5603,
    "RA_OF_ASC_NODE": 218.4091,
    "ARG_OF_PERICENTER": 321.7003,
    "MEAN_ANOMALY": 38.3655,
    "EPHEMERIS_TYPE": 0,
    "CLASSIFICATION_TYPE": "U",
    "NORAD_CAT_ID": 57189,
    "ELEMENT_SET_NO": 999,
    "REV_AT_EPOCH": 10747,
    "BSTAR": 0.00037858,
    "MEAN_MOTION_DOT": 8.967e-05,
    "MEAN_MOTION_DDOT": 0
  },
  {
    "OBJECT_NAME": "NANOZOND 1 (RS49S)",
    "OBJECT_ID": "2023-091AA",
    "EPOCH": "2025-06-07T19:49:08.867712",
    "MEAN_MOTION": 15.35607402,
    "ECCENTRICITY": 0.0004804,
    "INCLINATION": 97.5558,
    "RA_OF_ASC_NODE": 222.2867,
    "ARG_OF_PERICENTER": 310.4484,
    "MEAN_ANOMALY": 49.634,
    "EPHEMERIS_TYPE": 0,
    "CLASSIFICATION_TYPE": "U",
    "NORAD_CAT_ID": 57190,
    "ELEMENT_SET_NO": 999,
    "REV_AT_EPOCH": 10774,
    "BSTAR": 0.00062015,
    "MEAN_MOTION_DOT": 0.00021426,
    "MEAN_MOTION_DDOT": 0
  },
  {
    "OBJECT_NAME": "POLYTECH-UNIVERSE 3 (RS46S)",
    "OBJECT_ID": "2023-091AB",
    "EPOCH": "2025-06-07T19:46:21.801216",
    "MEAN_MOTION": 15.14450846,
    "ECCENTRICITY": 0.0016622,
    "INCLINATION": 97.5582,
    "RA_OF_ASC_NODE": 214.0372,
    "ARG_OF_PERICENTER": 353.1742,
    "MEAN_ANOMALY": 6.926,
    "EPHEMERIS_TYPE": 0,
    "CLASSIFICATION_TYPE": "U",
    "NORAD_CAT_ID": 57191,
    "ELEMENT_SET_NO": 999,
    "REV_AT_EPOCH": 10720,
    "BSTAR": 0.00023025,
    "MEAN_MOTION_DOT": 4.179e-05,
    "MEAN_MOTION_DDOT": 0
  },
  {
    "OBJECT_NAME": "UTMN 2 (RS27S)",
    "OBJECT_ID": "2023-091AP",
    "EPOCH": "2025-06-07T20:42:17.665344",
    "MEAN_MOTION": 15.21727216,
    "ECCENTRICITY": 0.0008753,
    "INCLINATION": 97.5603,
    "RA_OF_ASC_NODE": 217.7395,
    "ARG_OF_PERICENTER": 323.8249,
    "MEAN_ANOMALY": 36.2394,
    "EPHEMERIS_TYPE": 0,
    "CLASSIFICATION_TYPE": "U",
    "NORAD_CAT_ID": 57203,
    "ELEMENT_SET_NO": 999,
    "REV_AT_EPOCH": 10743,
    "BSTAR": 0.00034031,
    "MEAN_MOTION_DOT": 7.646e-05,
    "MEAN_MOTION_DDOT": 0
  },
  {
    "OBJECT_NAME": "ARCCUBE 1 (RS25S)",
    "OBJECT_ID": "2023-091AR",
    "EPOCH": "2025-06-07T20:09:00.193248",
    "MEAN_MOTION": 15.45296423,
    "ECCENTRICITY": 0.0003742,
    "INCLINATION": 97.5471,
    "RA_OF_ASC_NODE": 224.3995,
    "ARG_OF_PERICENTER": 292.4443,
    "MEAN_ANOMALY": 67.6409,
    "EPHEMERIS_TYPE": 0,
    "CLASSIFICATION_TYPE": "U",
    "NORAD_CAT_ID": 57205,
    "ELEMENT_SET_NO": 999,
    "REV_AT_EPOCH": 10790,
    "BSTAR": 0.0008784,
    "MEAN_MOTION_DOT": 0.00041918,
    "MEAN_MOTION_DDOT": 0
  },
  {
    "OBJECT_NAME": "KUZGTU 1 (RS47S)",
    "OBJECT_ID": "2023-091AV",
    "EPOCH": "2025-06-07T20:05:17.604384",
    "MEAN_MOTION": 15.20110012,
    "ECCENTRICITY": 0.001256,
    "INCLINATION": 97.559,
    "RA_OF_ASC_NODE": 216.1282,
    "ARG_OF_PERICENTER": 337.0084,
    "MEAN_ANOMALY": 23.0587,
    "EPHEMERIS_TYPE": 0,
    "CLASSIFICATION_TYPE": "U",
    "NORAD_CAT_ID": 57217,
    "ELEMENT_SET_NO": 999,
    "REV_AT_EPOCH": 10733,
    "BSTAR": 0.00037019,
    "MEAN_MOTION_DOT": 7.947e-05,
    "MEAN_MOTION_DDOT": 0
  },
  {
    "OBJECT_NAME": "SONATE-2",
    "OBJECT_ID": "2024-043Q",
    "EPOCH": "2025-06-07T14:31:25.144896",
    "MEAN_MOTION": 15.357073,
    "ECCENTRICITY": 0.0012313,
    "INCLINATION": 97.5129,
    "RA_OF_ASC_NODE": 289.7433,
    "ARG_OF_PERICENTER": 120.424,
    "MEAN_ANOMALY": 239.8221,
    "EPHEMERIS_TYPE": 0,
    "CLASSIFICATION_TYPE": "U",
    "NORAD_CAT_ID": 59112,
    "ELEMENT_SET_NO": 999,
    "REV_AT_EPOCH": 7003,
    "BSTAR": 0.0003921,
    "MEAN_MOTION_DOT": 0.00013574,
    "MEAN_MOTION_DDOT": 0
  }
]