57167,STRATOSAT-TK 1 (RS52S),2023,93.5,-1.0,+,97.55,Active,0,LEO,Russia,Russia/USSR,Unknown,Unknown,Unknown,1 57167U 23091B   25158.88983959  .00031638  00000+0  78968-3 0  9992,2 57167  97.5535 222.3249 0006490 316.3244  43.7487 15.40103058107758,15.40103058,0.000649,LEO
57172,UMKA 1 (RS40S),2023,95.03,-1.0,+,97.56,Active,0,LEO,Russia,Russia/USSR,Unknown,Unknown,Unknown,1 57172U 23091G   25158.88997207  .00004635  00000+0  24889-3 0  9999,2 57172  97.5585 214.2805 0013703 346.7768  13.3103 15.15343309107227,15.15343309,0.0013703,LEO
57178,CUBESX-HSE 3 (RS42S),2023,94.69,-1.0,+,97.56,Active,0,LEO,Russia,Russia/USSR,Unknown,Unknown,Unknown,1 57178U 23091N   25158.87712445  .00007594  00000+0  34775-3 0  9995,2 57178  97.5616 216.6129 0012415 334.7630  25.2997 15.20717175107356,15.20717175,0.0012415,LEO
57180,MONITOR-3 (RS58S),2023,94.8,-1.0,+,97.56,Active,0,LEO,Russia,Russia/USSR,Unknown,Unknown,Unknown,1 57180U 23091Q   25158.83647924  .00007143  00000+0  34322-3 0  9991,2 57180  97.5609 215.8430 0013141 337.2049  22.8601 15.19066089107305,15.19066089,0.0013141,LEO
57182,MONITOR-4 (RS57S),2023,94.79,-1.0,+,97.56,Active,0,LEO,Russia,Russia/USSR,Unknown,Unknown,Unknown,1 57182U 23091S   25158.83294762  .00007110  00000+0  34119-3 0  9999,2 57182  97.5605 215.7976 0013187 337.8706  22.1957 15.19112988107300,15.19112988,0.0013187,LEO
57184,MONITOR-2 (RS39S),2023,95.09,-1.0,+,97.56,Active,0,LEO,Russia,Russia/USSR,Unknown,Unknown,Unknown,1 57184U 23091U   25158.82373786  .00003881  00000+0  21490-3 0  9993,2 57184  97.5612 214.4902 0011493 338.0475  22.0263 15.14371080107213,15.1437108,0.0011493,LEO
57187,SVYATOBOR 1 (RS60S),2023,94.8,-1.0,+,97.56,Active,0,LEO,Russia,Russia/USSR,Unknown,Unknown,Unknown,1 57187U 23091X   25158.87055285  .00005677  00000+0  27493-3 0  9996,2 57187  97.5614 216.5839 0009948 329.4794  30.5860 15.18922263107351,15.18922263,0.0009948,LEO
57189,VIZARD-METEO (RS38S),2023,94.52,-1.0,+,97.56,Active,0,LEO,Russia,Russia/USSR,Unknown,Unknown,Unknown,1 57189U 23091Z   25158.82372598  .00008967  00000+0  37858-3 0  9993,2 57189  97.5603 218.4091 0008134 321.7003  38.3655 15.23478039107470,15.23478039,0.0008134,LEO
57190,NANOZOND 1 (RS49S),2023,93.78,-1.0,+,97.56,Active,0,LEO,Russia,Russia/USSR,Unknown,Unknown,Unknown,1 57190U 23091AA  25158.82579708  .00021426  00000+0  62015-3 0  9995,2 57190  97.5558 222.2867 0004804 310.4484  49.6340 15.35607402107740,15.35607402,0.0004804,LEO
57191,POLYTECH-UNIVERSE 3 (RS46S),2023,95.08,-1.0,+,97.56,Active,0,LEO,Russia,Russia/USSR,Unknown,Unknown,Unknown,1 57191U 23091AB  25158.82386344  .00004179  00000+0  23025-3 0  9992,2 57191  97.5582 214.0372 0016622 353.1742   6.9260 15.14450846107203,15.14450846,0.0016622,LEO
57203,UTMN 2 (RS27S),2023,94.63,-1.0,+,97.56,Active,0,LEO,Russia,Russia/USSR,Unknown,Unknown,Unknown,1 57203U 23091AP  25158.86270446  .00007646  00000+0  34031-3 0  9996,2 57203  97.5603 217.7395 0008753 323.8249  36.2394 15.21727216107433,15.21727216,0.0008753,LEO
57205,ARCCUBE 1 (RS25S),2023,93.19,-1.0,+,97.55,Active,0,LEO,Russia,Russia/USSR,Unknown,Unknown,Unknown,1 57205U 23091AR  25158.83958557  .00041918  00000+0  87840-3 0  9997,2 57205  97.5471 224.3995 0003742 292.4443  67.6409 15.45296423107902,15.45296423,0.0003742,LEO
57217,KUZGTU 1 (RS47S),2023,94.73,-1.0,+,97.56,Active,0,LEO,Russia,Russia/USSR,Unknown,Unknown,Unknown,1 57217U 23091AV  25158.83700931  .00007947  00000+0  37019-3 0  9998,2 57217  97.5590 216.1282 0012560 337.0084  23.0587 15.20110012107332,15.20110012,0.001256,LEO
59112,SONATE-2,2024,93.77,-1.0,+,97.51,Active,0,LEO,USA,Germany,Unknown,Unknown,Unknown,1 59112U 24043Q   25158.60515214  .00013574  00000+0  39210-3 0  9993,2 59112  97.5129 289.7433 0012313 120.4240 239.8221 15.35707300 70030,15.357073,0.0012313,LEO
